$$SOE
2460154.500000000, A.D. 2023-Jul-29 00:00:00.0000, -6.778073667732328E+07, -3.069031540502336E+07, 1.672484395365597E+07,
2460161.500000000, A.D. 2023-Aug-05 00:00:00.0000, -3.535757772453386E+07, -4.309845387668559E+07, 1.746718610274189E+07,
2460168.500000000, A.D. 2023-Aug-12 00:00:00.0000, 4.678622925222433E+06, -4.453103791351986E+07, 1.390125752272797E+07,
2460175.500000000, A.D. 2023-Aug-19 00:00:00.0000, 4.199045113367193E+07, -2.720542813604312E+07, 4.555392257072324E+06,
2460182.500000000, A.D. 2023-Aug-26 00:00:00.0000, 6.505384932407404E+07, 8.355280723291412E+05, -6.815141037713236E+06,
2460189.500000000, A.D. 2023-Sep-02 00:00:00.0000, 7.674230015012954E+07, 2.942526140909249E+07, -1.721828305553981E+07,
2460196.500000000, A.D. 2023-Sep-09 00:00:00.0000, 8.193659167058775E+07, 5.576330242197055E+07, -2.624128457038953E+07,
2460203.500000000, A.D. 2023-Sep-16 00:00:00.0000, 8.333980278912441E+07, 7.961725764271504E+07, -3.408111051587007E+07,
2460210.500000000, A.D. 2023-Sep-23 00:00:00.0000, 8.236499132743819E+07, 1.012459640883360E+08, -4.096347166575077E+07,
2460217.500000000, A.D. 2023-Sep-30 00:00:00.0000, 7.980370142039819E+07, 1.209505877622908E+08, -4.706520708780434E+07,
2460224.500000000, A.D. 2023-Oct-07 00:00:00.0000, 7.613353283796178E+07, 1.389908560514218E+08, -5.251819429768459E+07,
2460231.500000000, A.D. 2023-Oct-14 00:00:00.0000, 7.166122764965126E+07, 1.555777433186337E+08, -5.742138571144722E+07,
2460238.500000000, A.D. 2023-Oct-21 00:00:00.0000, 6.659401165336545E+07, 1.708810306150265E+08, -6.185042707683271E+07,
2460245.500000000, A.D. 2023-Oct-28 00:00:00.0000, 6.107775062770550E+07, 1.850381271847774E+08, -6.586434326726437E+07,
2460252.500000000, A.D. 2023-Nov-04 00:00:00.0000, 5.521865014754319E+07, 1.981613989277964E+08, -6.951008619500080E+07,
2460259.500000000, A.D. 2023-Nov-11 00:00:00.0000, 4.909625695637309E+07, 2.103437859299308E+08, -7.282565563648035E+07,
2460266.500000000, A.D. 2023-Nov-18 00:00:00.0000, 4.277160024351659E+07, 2.216630190413002E+08, -7.584227920862232E+07,
2460273.500000000, A.D. 2023-Nov-25 00:00:00.0000, 3.629248470172846E+07, 2.321847826496908E+08, -7.858596580766733E+07,
2460280.500000000, A.D. 2023-Dec-02 00:00:00.0000, 2.969704446823858E+07, 2.419651041837622E+08, -8.107863455314088E+07,
2460287.500000000, A.D. 2023-Dec-09 00:00:00.0000, 2.301619689620475E+07, 2.510521780781495E+08, -8.333895055121821E+07,
2460294.500000000, A.D. 2023-Dec-16 00:00:00.0000, 1.627537881451192E+07, 2.594877738943073E+08, -8.538295426639524E+07,
2460301.500000000, A.D. 2023-Dec-23 00:00:00.0000, 9.495802267220233E+06, 2.673083364876928E+08, -8.722454288334249E+07,
2460308.500000000, A.D. 2023-Dec-30 00:00:00.0000, 2.695379240301356E+06, 2.745458563436406E+08, -8.887584351695468E+07,
2460315.500000000, A.D. 2024-Jan-06 00:00:00.0000, -4.110587676391061E+06, 2.812285635679029E+08, -9.034750627653156E+07,
2460322.500000000, A.D. 2024-Jan-13 00:00:00.0000, -1.090887939393815E+07, 2.873814846113139E+08, -9.164893749090084E+07,
2460329.500000000, A.D. 2024-Jan-20 00:00:00.0000, -1.768795270951508E+07, 2.930268950820481E+08, -9.278848729734185E+07,
2460336.500000000, A.D. 2024-Jan-27 00:00:00.0000, -2.443762141948070E+07, 2.981846919098768E+08, -9.377360183087997E+07,
2460343.500000000, A.D. 2024-Feb-03 00:00:00.0000, -3.114880419439818E+07, 3.028727009863907E+08, -9.461094780677453E+07,
2460350.500000000, A.D. 2024-Feb-10 00:00:00.0000, -3.781332280713893E+07, 3.071069330215262E+08, -9.530651536744472E+07,
2460357.500000000, A.D. 2024-Feb-17 00:00:00.0000, -4.442373878335384E+07, 3.109017976676454E+08, -9.586570362965401E+07,
2460364.500000000, A.D. 2024-Feb-24 00:00:00.0000, -5.097321970094134E+07, 3.142702837367836E+08, -9.629339233205077E+07,
2460371.500000000, A.D. 2024-Mar-02 00:00:00.0000, -5.745542855216832E+07, 3.172241116051003E+08, -9.659400222477245E+07,
2460378.500000000, A.D. 2024-Mar-09 00:00:00.0000, -6.386443104929187E+07, 3.197738625852387E+08, -9.677154628328124E+07,
2460385.500000000, A.D. 2024-Mar-16 00:00:00.0000, -7.019461665193897E+07, 3.219290893214663E+08, -9.682967339694801E+07,
2460392.500000000, A.D. 2024-Mar-23 00:00:00.0000, -7.644063044663222E+07, 3.236984114116002E+08, -9.677170573148146E+07,
2460399.500000000, A.D. 2024-Mar-30 00:00:00.0000, -8.259731577860284E+07, 3.250895987275425E+08, -9.660067060501876E+07,
2460406.500000000, A.D. 2024-Apr-06 00:00:00.0000, -8.865966551364353E+07, 3.261096410855005E+08, -9.631932801359399E+07,
2460413.500000000, A.D. 2024-Apr-13 00:00:00.0000, -9.462277688488428E+07, 3.267648067459531E+08, -9.593019474328119E+07,
2460420.500000000, A.D. 2024-Apr-20 00:00:00.0000, -1.004818096556553E+08, 3.270606937755620E+08, -9.543556532626973E+07,
2460427.500000000, A.D. 2024-Apr-27 00:00:00.0000, -1.062319480950722E+08, 3.270022748189284E+08, -9.483753020848617E+07,
2460434.500000000, A.D. 2024-May-04 00:00:00.0000, -1.118683658178141E+08, 3.265939354845427E+08, -9.413799157291870E+07,
2460441.500000000, A.D. 2024-May-11 00:00:00.0000, -1.173861925088944E+08, 3.258395069900768E+08, -9.333867716415189E+07,
2460448.500000000, A.D. 2024-May-18 00:00:00.0000, -1.227804817968469E+08, 3.247422937024104E+08, -9.244115238379422E+07,
2460455.500000000, A.D. 2024-May-25 00:00:00.0000, -1.280461796562182E+08, 3.233050960670317E+08, -9.144683088142493E+07,
2460462.500000000, A.D. 2024-Jun-01 00:00:00.0000, -1.331780927235366E+08, 3.215302292761959E+08, -9.035698383859560E+07,
2460469.500000000, A.D. 2024-Jun-08 00:00:00.0000, -1.381708557435803E+08, 3.194195379783447E+08, -8.917274812967432E+07,
2460476.500000000, A.D. 2024-Jun-15 00:00:00.0000, -1.430188972110843E+08, 3.169744078289570E+08, -8.789513348834640E+07,
2460483.500000000, A.D. 2024-Jun-22 00:00:00.0000, -1.477164036612299E+08, 3.141957752525015E+08, -8.652502861071348E+07,
2460490.500000000, A.D. 2024-Jun-29 00:00:00.0000, -1.522572841386449E+08, 3.110841337326389E+08, -8.506320625228676E+07,
2460497.500000000, A.D. 2024-Jul-06 00:00:00.0000, -1.566351315504188E+08, 3.076395342325113E+08, -8.351032784674716E+07,
2460504.500000000, A.D. 2024-Jul-13 00:00:00.0000, -1.608431782433236E+08, 3.038615825860087E+08, -8.186694766794990E+07,
2460511.500000000, A.D. 2024-Jul-20 00:00:00.0000, -1.648742469902510E+08, 2.997494349853550E+08, -8.013351633342095E+07,
2460518.500000000, A.D. 2024-Jul-27 00:00:00.0000, -1.687206971149238E+08, 2.953017905371160E+08, -7.831038374133921E+07,
2460525.500000000, A.D. 2024-Aug-03 00:00:00.0000, -1.723743643936286E+08, 2.905168803984556E+08, -7.639780157334912E+07,
2460532.500000000, A.D. 2024-Aug-10 00:00:00.0000, -1.758264932703286E+08, 2.853924533286211E+08, -7.439592546027373E+07,
2460539.500000000, A.D. 2024-Aug-17 00:00:00.0000, -1.790676597750497E+08, 2.799257574615214E+08, -7.230481690134418E+07,
2460546.500000000, A.D. 2024-Aug-24 00:00:00.0000, -1.820876832227289E+08, 2.741135180005999E+08, -7.012444504190861E+07,
2460553.500000000, A.D. 2024-Aug-31 00:00:00.0000, -1.848755242604320E+08, 2.679519104347179E+08, -6.785468844778253E+07,
2460560.500000000, A.D. 2024-Sep-07 00:00:00.0000, -1.874191660403400E+08, 2.614365289962169E+08, -6.549533705578174E+07,
2460567.500000000, A.D. 2024-Sep-14 00:00:00.0000, -1.897054748784819E+08, 2.545623508849988E+08, -6.304609443284950E+07,
2460574.500000000, A.D. 2024-Sep-21 00:00:00.0000, -1.917200379660625E+08, 2.473236961364703E+08, -6.050658040273827E+07,
2460581.500000000, A.D. 2024-Sep-28 00:00:00.0000, -1.934469729587451E+08, 2.397141793142203E+08, -5.787633463916339E+07,
2460588.500000000, A.D. 2024-Oct-05 00:00:00.0000, -1.948686985220532E+08, 2.317266523790751E+08, -5.515482207921066E+07,
2460595.500000000, A.D. 2024-Oct-12 00:00:00.0000, -1.959656568393589E+08, 2.233531410473524E+08, -5.234144060911071E+07,
2460602.500000000, A.D. 2024-Oct-19 00:00:00.0000, -1.967159776187520E+08, 2.145847737635902E+08, -4.943553192348631E+07,
2460609.500000000, A.D. 2024-Oct-26 00:00:00.0000, -1.970950674866619E+08, 2.054117020445768E+08, -4.643639710469832E+07,
2460616.500000000, A.D. 2024-Nov-02 00:00:00.0000, -1.970751029276168E+08, 1.958230119703107E+08, -4.334331910797690E+07,
2460623.500000000, A.D. 2024-Nov-09 00:00:00.0000, -1.966243974388635E+08, 1.858066275067163E+08, -4.015559532041145E+07,
2460630.500000000, A.D. 2024-Nov-16 00:00:00.0000, -1.957066027009101E+08, 1.753492077204333E+08, -3.687258491044574E+07,
2460637.500000000, A.D. 2024-Nov-23 00:00:00.0000, -1.942796876416403E+08, 1.644360424592309E+08, -3.349377812083472E+07,
2460644.500000000, A.D. 2024-Nov-30 00:00:00.0000, -1.922946155588044E+08, 1.530509557473172E+08, -3.001889855284154E+07,
2460651.500000000, A.D. 2024-Dec-07 00:00:00.0000, -1.896936036572348E+08, 1.411762351317387E+08, -2.644805581012427E+07,
2460658.500000000, A.D. 2024-Dec-14 00:00:00.0000, -1.864077954469237E+08, 1.287926217516253E+08, -2.278197632867161E+07,
2460665.500000000, A.D. 2024-Dec-21 00:00:00.0000, -1.823540909281901E+08, 1.158794230096496E+08, -1.902235860698698E+07,
2460672.500000000, A.D. 2024-Dec-28 00:00:00.0000, -1.774307333033898E+08, 1.024148649611583E+08, -1.517243227195568E+07,
2460679.500000000, A.D. 2025-Jan-04 00:00:00.0000, -1.715110122606453E+08, 8.837691995495357E+07, -1.123786051207562E+07,
2460686.500000000, A.D. 2025-Jan-11 00:00:00.0000, -1.644340359004641E+08, 7.374507770635472E+07, -7.228241981054641E+06,
2460693.500000000, A.D. 2025-Jan-18 00:00:00.0000, -1.559907827360892E+08, 5.850403034104893E+07, -3.159706157341830E+06,
2460700.500000000, A.D. 2025-Jan-25 00:00:00.0000, -1.459022696595173E+08, 4.265139793850520E+07, 9.403922227889374E+05,
2460707.500000000, A.D. 2025-Feb-01 00:00:00.0000, -1.337840420327875E+08, 2.621445231105787E+07, 5.024495148780320E+06,
2460714.500000000, A.D. 2025-Feb-08 00:00:00.0000, -1.190861293879350E+08, 9.288321044462666E+06, 9.006456056087967E+06,
2460721.500000000, A.D. 2025-Feb-15 00:00:00.0000, -1.009887031574675E+08, -7.869846668490700E+06, 1.272062485009497E+07,
$$EOE